STARLINK-11491 [DTC]    
1 62269U 24237C   25110.61932775 -.00003075  00000+0 -20501-4 0  9990
2 62269  43.0005 203.7956 0002006 245.8556 114.2102 15.70808868 22246
STARLINK-11479 [DTC]    
1 62270U 24237D   25110.63525920 -.00002156  00000+0 -13301-4 0  9993
2 62270  42.9996 203.9281 0003947 246.5541 113.4912 15.70815417 22243
STARLINK-11489 [DTC]    
1 62271U 24237E   25110.60882935  .00000210  00000+0  51341-5 0  9997
2 62271  42.9987 204.6132 0001280 288.4740  71.5988 15.70832780 22239
STARLINK-11494 [DTC]    
1 62272U 24237F   25110.65115044  .00002507  00000+0  23013-4 0  9998
2 62272  43.0025 204.0533 0001816 287.8591  72.2078 15.70856392 22194
STARLINK-11333 [DTC]    
1 62273U 24237G   25110.66179451  .00001546  00000+0  15554-4 0  9995
2 62273  43.0035 204.1411 0001767 281.5827  78.4843 15.70823705 22246
STARLINK-11504 [DTC]    
1 62274U 24237H   25110.70944193  .00000124  00000+0  44782-5 0  9991
2 62274  43.0070 203.6209 0003386 258.4285 101.6203 15.70827362 22203
STARLINK-11495 [DTC]    
1 62275U 24237J   25110.67771653 -.00003638  00000+0 -24861-4 0  9997
2 62275  43.0034 204.2639 0002008 245.2041 114.8618 15.70842650 22193
STARLINK-11498 [DTC]    
1 62276U 24237K   25110.69351970 -.00000268  00000+0  14069-5 0  9991
2 62276  43.0005 203.4979 0001377 281.3629  78.7084 15.70830475 22255
STARLINK-11484 [DTC]    
1 62277U 24237L   25110.64055680  .00001015  00000+0  11413-4 0  9995
2 62277  43.0002 203.9678 0001788 267.6434  92.4229 15.70821597 22249
STARLINK-11487 [DTC]    
1 62278U 24237M   25110.66709978 -.00003758  00000+0 -25801-4 0  9998
2 62278  43.0024 204.1794 0001800 275.0764  84.9898 15.70842647 22247
STARLINK-11499 [DTC]    
1 62279U 24237N   25110.67863194 -.00000994  00000+0 -42488-5 0  9991
2 62279  43.0041 204.2723 0001891 266.4551  93.6100 15.70825075 22179
STARLINK-33548          
1 62280U 24237P   25110.68132593  .00000284  00000+0  14061-4 0  9991
2 62280  43.0032 236.0797 0001436 265.9890  94.0803 15.40699551 21843
STARLINK-33544          
1 62281U 24237Q   25110.70961279  .00001595  00000+0  67471-4 0  9995
2 62281  43.0019 240.6140 0000938 280.1765  79.8981 15.27583895 21798
STARLINK-33560          
1 62282U 24237R   25110.75699133  .00001863  00000+0  77185-4 0  9999
2 62282  43.0012 240.1092 0000400 355.3402   4.7445 15.27587768 21717
STARLINK-33547          
1 62283U 24237S   25110.73046762 -.00001282  00000+0 -23392-4 0  9990
2 62283  43.0059 235.5828 0002476 249.9600 110.0990 15.40708870 21852
STARLINK-33563          
1 62284U 24237T   25110.82879700  .00001217  00000+0  53754-4 0  9998
2 62284  43.0025 239.7831 0002590 313.0105  47.0529 15.27586946 21812
STARLINK-33550          
1 62285U 24237U   25110.75314706  .00003284  00000+0  12882-3 0  9993
2 62285  43.0001 240.0790 0001206  42.6286 317.4659 15.27575410 21805
STARLINK-33564          
1 62286U 24237V   25110.83264849  .00003684  00000+0  14327-3 0  9995
2 62286  42.9992 239.8125 0000981 289.9707  70.1038 15.27596141 21813
STARLINK-33546          
1 62287U 24237W   25110.69417095  .00002835  00000+0  11244-3 0  9995
2 62287  43.0004 240.4894 0001208 265.2551  94.8162 15.27595339 21705
STARLINK-33565          
1 62288U 24237X   25110.80204021 -.00005423  00000+0 -12251-3 0  9999
2 62288  43.0017 235.2635 0003973  42.1013 318.0148 15.40716085 21861
STARLINK-33549          
1 62289U 24237Y   25110.70573806  .00002398  00000+0  96608-4 0  9994
2 62289  43.0000 240.5848 0001060 310.2650  49.8109 15.27591638 21798
STARLINK-32648          
1 62301U 24239A   25110.76801848  .00000334  00000+0  18336-4 0  9997
2 62301  53.1616 253.1163 0000933  88.4138 271.6974 15.39620684 19958
STARLINK-32594          
1 62302U 24239B   25109.40588454  .00005837  00000+0  20916-3 0  9991
2 62302  53.1589 257.9749 0001502 100.1635 259.9535 15.30181032 19768
STARLINK-32621          
1 62303U 24239C   25110.81866783  .00001374  00000+0  44297-4 0  9994
2 62303  53.1606 252.7225 0000759  94.5350 265.5741 15.39625448 19961
STARLINK-32597          
1 62304U 24239D   25110.91177240  .00000376  00000+0  19383-4 0  9998
2 62304  53.1610 252.5917 0001293  89.0121 271.1032 15.39627105 19971
STARLINK-32649          
1 62305U 24239E   25110.91668981  .00051770  00000+0  17502-2 0  9999
2 62305  53.1596 252.8037 0001051  81.5901 189.5544 15.30157327  5909
STARLINK-32633          
1 62306U 24239F   25110.76643959 -.00000256  00000+0  34875-5 0  9990
2 62306  53.1608 253.8150 0001640  84.0517 276.0671 15.30197707 19944
STARLINK-32646          
1 62307U 24239G   25110.76304426 -.00001555  00000+0 -28896-4 0  9993
2 62307  53.1621 253.0858 0000758 127.0357 233.0717 15.39623436 19953
STARLINK-32706          
1 62308U 24239H   25110.79598438 -.00001456  00000+0 -37018-4 0  9991
2 62308  53.1612 253.9943 0001309 111.3210 248.7931 15.30206984 19941
STARLINK-32678          
1 62309U 24239J   25110.76337630  .00000952  00000+0  33783-4 0  9997
2 62309  53.1592 253.0929 0002042  69.9925 290.1300 15.39630370 19951
