OBJECT_NAME,OBJECT_ID,EPOCH,MEAN_MOTION,ECCENTRICITY,INCLINATION,RA_OF_ASC_NODE,ARG_OF_PERICENTER,MEAN_ANOMALY,EPHEMERIS_TYPE,CLASSIFICATION_TYPE,NORAD_CAT_ID,ELEMENT_SET_NO,REV_AT_EPOCH,BSTAR,MEAN_MOTION_DOT,MEAN_MOTION_DDOT
STARLINK-11491 [DTC],2024-237C,2025-04-20T14:51:49.917600,15.70808868,.0002006,43.0005,203.7956,245.8556,114.2102,0,U,62269,999,2224,-.20501E-4,-.3075E-4,0
STARLINK-11479 [DTC],2024-237D,2025-04-20T15:14:46.394880,15.70815417,.0003947,42.9996,203.9281,246.5541,113.4912,0,U,62270,999,2224,-.13301E-4,-.2156E-4,0
STARLINK-11489 [DTC],2024-237E,2025-04-20T14:36:42.855840,15.70832780,.000128,42.9987,204.6132,288.4740,71.5988,0,U,62271,999,2223,.51341E-5,.21E-5,0
STARLINK-11494 [DTC],2024-237F,2025-04-20T15:37:39.398016,15.70856392,.0001816,43.0025,204.0533,287.8591,72.2078,0,U,62272,999,2219,.23013E-4,.2507E-4,0
STARLINK-11333 [DTC],2024-237G,2025-04-20T15:52:59.045664,15.70823705,.0001767,43.0035,204.1411,281.5827,78.4843,0,U,62273,999,2224,.15554E-4,.1546E-4,0
STARLINK-11504 [DTC],2024-237H,2025-04-20T17:01:35.782752,15.70827362,.0003386,43.0070,203.6209,258.4285,101.6203,0,U,62274,999,2220,.44782E-5,.124E-5,0
STARLINK-11495 [DTC],2024-237J,2025-04-20T16:15:54.708192,15.70842650,.0002008,43.0034,204.2639,245.2041,114.8618,0,U,62275,999,2219,-.24861E-4,-.3638E-4,0
STARLINK-11498 [DTC],2024-237K,2025-04-20T16:38:40.102080,15.70830475,.0001377,43.0005,203.4979,281.3629,78.7084,0,U,62276,999,2225,.14069E-5,-.268E-5,0
STARLINK-11484 [DTC],2024-237L,2025-04-20T15:22:24.107520,15.70821597,.0001788,43.0002,203.9678,267.6434,92.4229,0,U,62277,999,2224,.11413E-4,.1015E-4,0
STARLINK-11487 [DTC],2024-237M,2025-04-20T16:00:37.420992,15.70842647,.00018,43.0024,204.1794,275.0764,84.9898,0,U,62278,999,2224,-.25801E-4,-.3758E-4,0
STARLINK-11499 [DTC],2024-237N,2025-04-20T16:17:13.799616,15.70825075,.0001891,43.0041,204.2723,266.4551,93.6100,0,U,62279,999,2217,-.42488E-5,-.994E-5,0
STARLINK-33548,2024-237P,2025-04-20T16:21:06.560352,15.40699551,.0001436,43.0032,236.0797,265.9890,94.0803,0,U,62280,999,2184,.14061E-4,.284E-5,0
STARLINK-33544,2024-237Q,2025-04-20T17:01:50.545056,15.27583895,.0000938,43.0019,240.6140,280.1765,79.8981,0,U,62281,999,2179,.67471E-4,.1595E-4,0
STARLINK-33560,2024-237R,2025-04-20T18:10:04.050912,15.27587768,.00004,43.0012,240.1092,355.3402,4.7445,0,U,62282,999,2171,.77185E-4,.1863E-4,0
STARLINK-33547,2024-237S,2025-04-20T17:31:52.402368,15.40708870,.0002476,43.0059,235.5828,249.9600,110.0990,0,U,62283,999,2185,-.23392E-4,-.1282E-4,0
STARLINK-33563,2024-237T,2025-04-20T19:53:28.060800,15.27586946,.000259,43.0025,239.7831,313.0105,47.0529,0,U,62284,999,2181,.53754E-4,.1217E-4,0
STARLINK-33550,2024-237U,2025-04-20T18:04:31.905984,15.27575410,.0001206,43.0001,240.0790,42.6286,317.4659,0,U,62285,999,2180,.12882E-3,.3284E-4,0
STARLINK-33564,2024-237V,2025-04-20T19:59:00.829536,15.27596141,.0000981,42.9992,239.8125,289.9707,70.1038,0,U,62286,999,2181,.14327E-3,.3684E-4,0
STARLINK-33546,2024-237W,2025-04-20T16:39:36.370080,15.27595339,.0001208,43.0004,240.4894,265.2551,94.8162,0,U,62287,999,2170,.11244E-3,.2835E-4,0
STARLINK-33565,2024-237X,2025-04-20T19:14:56.274144,15.40716085,.0003973,43.0017,235.2635,42.1013,318.0148,0,U,62288,999,2186,-.12251E-3,-.5423E-4,0
STARLINK-33549,2024-237Y,2025-04-20T16:56:15.768384,15.27591638,.000106,43.0000,240.5848,310.2650,49.8109,0,U,62289,999,2179,.96608E-4,.2398E-4,0
STARLINK-32648,2024-239A,2025-04-20T18:25:56.796672,15.39620684,.0000933,53.1616,253.1163,88.4138,271.6974,0,U,62301,999,1995,.18336E-4,.334E-5,0
STARLINK-32594,2024-239B,2025-04-19T09:44:28.424256,15.30181032,.0001502,53.1589,257.9749,100.1635,259.9535,0,U,62302,999,1976,.20916E-3,.5837E-4,0
STARLINK-32621,2024-239C,2025-04-20T19:38:52.900512,15.39625448,.0000759,53.1606,252.7225,94.5350,265.5741,0,U,62303,999,1996,.44297E-4,.1374E-4,0
STARLINK-32597,2024-239D,2025-04-20T21:52:57.135360,15.39627105,.0001293,53.1610,252.5917,89.0121,271.1032,0,U,62304,999,1997,.19383E-4,.376E-5,0
STARLINK-32649,2024-239E,2025-04-20T22:00:01.999584,15.30157327,.0001051,53.1596,252.8037,81.5901,189.5544,0,U,62305,999,590,.17502E-2,.5177E-3,0
STARLINK-32633,2024-239F,2025-04-20T18:23:40.380576,15.30197707,.000164,53.1608,253.8150,84.0517,276.0671,0,U,62306,999,1994,.34875E-5,-.256E-5,0
STARLINK-32646,2024-239G,2025-04-20T18:18:47.024064,15.39623436,.0000758,53.1621,253.0858,127.0357,233.0717,0,U,62307,999,1995,-.28896E-4,-.1555E-4,0
STARLINK-32706,2024-239H,2025-04-20T19:06:13.050432,15.30206984,.0001309,53.1612,253.9943,111.3210,248.7931,0,U,62308,999,1994,-.37018E-4,-.1456E-4,0
STARLINK-32678,2024-239J,2025-04-20T18:19:15.712320,15.39630370,.0002042,53.1592,253.0929,69.9925,290.1300,0,U,62309,999,1995,.33783E-4,.952E-5,0
